LEMUR-2-STARLIGHT       
1 66783U 25276DY  26199.73949843  .00003560  00000+0  29499-3 0  9995
2 66783  97.5234 269.3007 0014676  36.6772 323.5453 14.99381177 34927
LEMUR-2-TARTIFLETTE     
1 66784U 25276DZ  26199.73793866  .00003247  00000+0  26962-3 0  9992
2 66784  97.5232 269.3071 0013874  45.2874 314.9477 14.99363603 34929
LEMUR-2-VUKASIN         
1 66785U 25276EA  26199.70545963  .00002162  00000+0  17584-3 0  9998
2 66785  97.5209 269.6401 0002493  43.6879 316.4542 15.00563053 34874
LEMUR-2-HOTSPUR-TOM     
1 66786U 25276EB  26199.73257715  .00002731  00000+0  22817-3 0  9994
2 66786  97.5212 269.2747 0013676  36.9937 323.2227 14.99261370 34851
LEMUR-2-MYRA            
1 66787U 25276EC  26199.73725067  .00003019  00000+0  24269-3 0  9998
2 66787  97.5220 269.5906 0018628  43.5226 316.7464 15.00611838 34949
LEMUR-2 FIKRETDENGIZ    
1 67363U 26004A   26199.79774078  .00001956  00000+0  21614-3 0  9990
2 67363  97.8032 197.8762 0009922  45.8625 314.3406 14.88530422 27982
TWILIGHT-1 OBJECT B     
1 67364U 26004B   26198.96233214  .00000859  00000+0  99977-4 0  9990
2 67364  97.8076 197.0524 0009540  37.8134 322.3751 14.87798598 27869
LEMUR-2-MARIO-SOUSA     
1 67365U 26004C   26199.70987823  .00001735  00000+0  19133-3 0  9995
2 67365  97.8003 197.7845 0009598  47.3532 312.8492 14.88742836 27988
LEMUR-2-SONNENBLUME     
1 67367U 26004E   26199.78061087  .00001205  00000+0  13567-3 0  9997
2 67367  97.8002 197.8252 0009202  48.2789 311.9213 14.88462938 27992
LEMUR-2-WOBLER          
1 67368U 26004F   26199.23159703  .00001690  00000+0  18669-3 0  9997
2 67368  97.8054 197.4389 0009288  41.2949 318.8968 14.88710075 27915
LEMUR-2-GRAM-E-SUE      
1 67370U 26004H   26199.42561133  .00001168  00000+0  13128-3 0  9990
2 67370  97.7987 197.4922 0008394  52.3674 307.8304 14.88597400 27940
LEMUR-2-KATIE           
1 67387U 26004AA  26199.78182804  .00001862  00000+0  19756-3 0  9995
2 67387  97.8048 198.4065 0003157  25.2222 334.9149 14.90267445 28019
LEMUR-2-HCS-BAZUS       
1 67388U 26004AB  26199.78016060  .00001608  00000+0  17132-3 0  9990
2 67388  97.8039 198.3827 0002673  26.7191 333.4164 14.90275793 28014
